OBJECT_NAME,OBJECT_ID,EPOCH,MEAN_MOTION,ECCENTRICITY,INCLINATION,RA_OF_ASC_NODE,ARG_OF_PERICENTER,MEAN_ANOMALY,EPHEMERIS_TYPE,CLASSIFICATION_TYPE,NORAD_CAT_ID,ELEMENT_SET_NO,REV_AT_EPOCH,BSTAR,MEAN_MOTION_DOT,MEAN_MOTION_DDOT
VINASAT-2,2012-023B,2024-01-20T12:50:42.624384,1.00271649,.0002675,0.0252,319.2262,351.8322,132.8417,0,U,38332,999,3785,0,-.325E-5,0
NIMIQ 6,2012-026A,2024-01-20T12:20:46.694976,1.00271039,.0003096,0.0327,288.4694,15.0419,269.9413,0,U,38342,999,4161,0,-.169E-5,0
CHINASAT 2A (ZX 2A),2012-028A,2024-01-20T12:50:32.925984,1.00271880,.0003469,0.0363,224.5022,117.6927,68.0813,0,U,38352,999,4256,0,-.289E-5,0
INTELSAT 19 (IS-19),2012-030A,2024-01-20T15:24:04.971744,1.00271428,.0003354,0.0172,65.9666,236.7430,213.8013,0,U,38356,999,4163,0,-.53E-6,0
ECHOSTAR 17,2012-035A,2024-01-20T11:08:07.027008,1.00269379,.0001826,0.0186,61.7816,229.6558,247.8004,0,U,38551,999,4225,0,-.7E-6,0
METEOSAT-10 (MSG-3),2012-035B,2024-01-20T05:54:23.433984,1.00274456,.0001203,2.6353,59.5810,231.9161,276.2732,0,U,38552,999,4204,0,-.4E-7,0
SES-5,2012-036A,2024-01-20T07:18:42.683616,1.00274581,.0002182,0.0235,354.3659,297.0855,302.3595,0,U,38652,999,3567,0,.39E-6,0
INTELSAT 20 (IS-20),2012-043A,2024-01-20T11:23:27.718368,1.00271384,.0002444,0.0167,112.7927,76.8483,169.0373,0,U,38740,999,4193,0,-.2E-6,0
HYLAS 2,2012-043B,2024-01-20T06:03:17.267616,1.00269943,.0001443,0.1534,91.5370,212.9704,296.4374,0,U,38741,999,4195,0,.158E-5,0
INTELSAT 21 (IS-21),2012-045A,2024-01-20T10:56:54.536928,1.00272516,.0002538,0.0132,300.3546,350.0230,295.1642,0,U,38749,999,4171,0,-.28E-5,0
ASTRA 2F,2012-051A,2024-01-20T11:11:40.954272,1.00270295,.0003689,0.0661,237.3289,25.1263,52.9637,0,U,38778,999,3231,0,.154E-5,0
GSAT-10,2012-051B,2024-01-20T13:00:32.582592,1.00272129,.0004896,0.0901,269.1238,358.4621,129.9526,0,U,38779,999,4130,0,-.161E-5,0
INTELSAT 23 (IS-23),2012-057A,2024-01-20T10:48:37.500192,1.00271906,.0000432,0.0332,172.0272,166.7607,249.6919,0,U,38867,999,4113,0,-.28E-5,0
BEIDOU-2 G6,2012-059A,2024-01-20T11:27:50.873760,1.00274483,.0009313,2.1808,81.4717,288.5213,5.2535,0,U,38953,999,4109,0,-.173E-5,0
LUCH-5B,2012-061A,2024-01-20T09:15:53.613216,1.00271140,.0003101,8.5611,57.9933,184.9199,358.9776,0,U,38977,999,4080,0,-.139E-5,0
YAMAL 300K,2012-061B,2024-01-20T15:50:33.650016,1.00271008,.0001215,0.0155,53.5767,298.5375,187.9827,0,U,38978,999,4082,0,.75E-6,0
STAR ONE C3,2012-062A,2024-01-20T10:43:57.151200,1.00272016,.0002384,0.0131,72.4474,220.7244,272.1226,0,U,38991,999,4094,0,-.244E-5,0
EUTELSAT 21B,2012-062B,2024-01-20T06:00:31.853952,1.00272808,.0002481,0.0659,15.9059,279.3371,295.6120,0,U,38992,999,4101,0,.134E-5,0
ECHOSTAR 16,2012-065A,2024-01-20T12:25:01.435008,1.00269113,.0001855,0.0177,63.8178,230.1372,310.1666,0,U,39008,999,4099,0,-.277E-5,0
EUTELSAT 70B,2012-069A,2024-01-20T11:23:57.793344,1.00271722,.000397,0.0619,16.7164,254.7049,89.3949,0,U,39020,999,4069,0,-.39E-6,0
YAMAL 402,2012-070A,2024-01-20T11:19:34.636224,1.00270449,.0004716,0.0236,75.7173,218.6562,49.7623,0,U,39022,999,4058,0,.9E-6,0
SKYNET 5D,2012-075A,2024-01-20T11:18:57.041856,1.00273062,.0003789,0.0655,12.5605,282.8304,46.3807,0,U,39034,999,4034,0,.104E-5,0
MEXSAT 3,2012-075B,2024-01-20T14:26:33.969120,1.00272108,.0002258,0.0154,55.2035,241.0819,284.9993,0,U,39035,999,4037,0,-.21E-6,0
AMAZONAS 3,2013-006A,2024-01-20T12:25:01.930944,1.00269747,.0004191,0.0427,222.1978,46.0315,336.4139,0,U,39078,999,3609,0,-.278E-5,0
AZERSPACE 1,2013-006B,2024-01-20T11:16:56.741952,1.00271815,.0001646,0.0177,54.0400,269.6602,10.8325,0,U,39079,999,3999,0,.137E-5,0
SBIRS GEO-2 (USA 241),2013-011A,2024-01-20T10:52:53.138784,1.00271326,.0002438,2.7112,44.2377,252.4486,307.8461,0,U,39120,999,3972,0,-.255E-5,0
EUTELSAT 117 WEST A,2013-012A,2024-01-20T14:24:57.425760,1.00271124,.0003031,0.0364,292.0309,8.0290,278.8214,0,U,39122,999,3962,0,-.8E-7,0
ANIK G1,2013-014A,2024-01-20T12:59:55.000320,1.00270976,.0003305,0.0208,51.0881,241.5387,274.4623,0,U,39127,999,3944,0,-.69E-6,0
CHINASAT 11 (ZX 11),2013-020A,2024-01-20T13:10:32.836224,1.00273967,.0003774,0.0171,69.1494,229.1522,116.6124,0,U,39157,999,3908,0,-.286E-5,0
EUTELSAT 7B,2013-022A,2024-01-20T09:22:24.588768,1.00270691,.0005482,0.0703,343.2102,348.9782,294.6380,0,U,39163,999,3915,0,.52E-6,0
