VINASAT-2               
1 38332U 12023B   24020.53521556 -.00000325  00000+0  00000+0 0  9996
2 38332   0.0252 319.2262 0002675 351.8322 132.8417  1.00271649 37858
NIMIQ 6                 
1 38342U 12026A   24020.51442934 -.00000169  00000+0  00000+0 0  9996
2 38342   0.0327 288.4694 0003096  15.0419 269.9413  1.00271039 41612
CHINASAT 2A (ZX 2A)     
1 38352U 12028A   24020.53510331 -.00000289  00000+0  00000+0 0  9991
2 38352   0.0363 224.5022 0003469 117.6927  68.0813  1.00271880 42567
INTELSAT 19 (IS-19)     
1 38356U 12030A   24020.64172421 -.00000053  00000+0  00000+0 0  9993
2 38356   0.0172  65.9666 0003354 236.7430 213.8013  1.00271428 41632
ECHOSTAR 17             
1 38551U 12035A   24020.46397022 -.00000070  00000+0  00000+0 0  9990
2 38551   0.0186  61.7816 0001826 229.6558 247.8004  1.00269379 42257
METEOSAT-10 (MSG-3)     
1 38552U 12035B   24020.24610456 -.00000004  00000+0  00000+0 0  9993
2 38552   2.6353  59.5810 0001203 231.9161 276.2732  1.00274456 42049
SES-5                   
1 38652U 12036A   24020.30466069  .00000039  00000+0  00000+0 0  9998
2 38652   0.0235 354.3659 0002182 297.0855 302.3595  1.00274581 35676
INTELSAT 20 (IS-20)     
1 38740U 12043A   24020.47462637 -.00000020  00000+0  00000+0 0  9990
2 38740   0.0167 112.7927 0002444  76.8483 169.0373  1.00271384 41939
HYLAS 2                 
1 38741U 12043B   24020.25228319  .00000158  00000+0  00000+0 0  9995
2 38741   0.1534  91.5370 0001443 212.9704 296.4374  1.00269943 41958
INTELSAT 21 (IS-21)     
1 38749U 12045A   24020.45618677 -.00000280  00000+0  00000+0 0  9994
2 38749   0.0132 300.3546 0002538 350.0230 295.1642  1.00272516 41717
ASTRA 2F                
1 38778U 12051A   24020.46644623  .00000154  00000+0  00000+0 0  9993
2 38778   0.0661 237.3289 0003689  25.1263  52.9637  1.00270295 32314
GSAT-10                 
1 38779U 12051B   24020.54204378 -.00000161  00000+0  00000+0 0  9991
2 38779   0.0901 269.1238 0004896 358.4621 129.9526  1.00272129 41309
INTELSAT 23 (IS-23)     
1 38867U 12057A   24020.45043403 -.00000280  00000+0  00000+0 0  9997
2 38867   0.0332 172.0272 0000432 166.7607 249.6919  1.00271906 41130
BEIDOU-2 G6             
1 38953U 12059A   24020.47767215 -.00000173  00000+0  00000+0 0  9992
2 38953   2.1808  81.4717 0009313 288.5213   5.2535  1.00274483 41095
LUCH-5B                 
1 38977U 12061A   24020.38603719 -.00000139  00000+0  00000+0 0  9991
2 38977   8.5611  57.9933 0003101 184.9199 358.9776  1.00271140 40802
YAMAL 300K              
1 38978U 12061B   24020.66011169  .00000075  00000+0  00000+0 0  9993
2 38978   0.0155  53.5767 0001215 298.5375 187.9827  1.00271008 40824
STAR ONE C3             
1 38991U 12062A   24020.44718925 -.00000244  00000+0  00000+0 0  9998
2 38991   0.0131  72.4474 0002384 220.7244 272.1226  1.00272016 40941
EUTELSAT 21B            
1 38992U 12062B   24020.25036868  .00000134  00000+0  00000+0 0  9994
2 38992   0.0659  15.9059 0002481 279.3371 295.6120  1.00272808 41018
ECHOSTAR 16             
1 39008U 12065A   24020.51737772 -.00000277  00000+0  00000+0 0  9996
2 39008   0.0177  63.8178 0001855 230.1372 310.1666  1.00269113 40816
EUTELSAT 70B            
1 39020U 12069A   24020.47497446 -.00000039  00000+0  00000+0 0  9996
2 39020   0.0619  16.7164 0003970 254.7049  89.3949  1.00271722 40690
YAMAL 402               
1 39022U 12070A   24020.47192866  .00000090  00000+0  00000+0 0  9994
2 39022   0.0236  75.7173 0004716 218.6562  49.7623  1.00270449 40582
SKYNET 5D               
1 39034U 12075A   24020.47149354  .00000104  00000+0  00000+0 0  9992
2 39034   0.0655  12.5605 0003789 282.8304  46.3807  1.00273062 40340
MEXSAT 3                
1 39035U 12075B   24020.60178205 -.00000021  00000+0  00000+0 0  9994
2 39035   0.0154  55.2035 0002258 241.0819 284.9993  1.00272108 40373
AMAZONAS 3              
1 39078U 13006A   24020.51738346 -.00000278  00000+0  00000+0 0  9998
2 39078   0.0427 222.1978 0004191  46.0315 336.4139  1.00269747 36090
AZERSPACE 1             
1 39079U 13006B   24020.47010118  .00000137  00000+0  00000+0 0  9997
2 39079   0.0177  54.0400 0001646 269.6602  10.8325  1.00271815 39990
SBIRS GEO-2 (USA 241)   
1 39120U 13011A   24020.45339281 -.00000255  00000+0  00000+0 0  9995
2 39120   2.7112  44.2377 0002438 252.4486 307.8461  1.00271326 39727
EUTELSAT 117 WEST A     
1 39122U 13012A   24020.60066465 -.00000008  00000+0  00000+0 0  9992
2 39122   0.0364 292.0309 0003031   8.0290 278.8214  1.00271124 39623
ANIK G1                 
1 39127U 13014A   24020.54160880 -.00000069  00000+0  00000+0 0  9995
2 39127   0.0208  51.0881 0003305 241.5387 274.4623  1.00270976 39448
CHINASAT 11 (ZX 11)     
1 39157U 13020A   24020.54899116 -.00000286  00000+0  00000+0 0  9997
2 39157   0.0171  69.1494 0003774 229.1522 116.6124  1.00273967 39089
EUTELSAT 7B             
1 39163U 13022A   24020.39056237  .00000052  00000+0  00000+0 0  9998
2 39163   0.0703 343.2102 0005482 348.9782 294.6380  1.00270691 39155
